{"type": "FeatureCollection", "features": [ {"type": "Feature", "properties": {"norad_id": 37550, "name": "IRIDIUM 33 DEB", "group": "iridium-33-debris", "lat": 82.4246013560009, "lon": 48.837150152531514, "alt_km": 658.3891294469013, "timestamp": "2025-12-20T14:38:02.354979+00:00", "meta": {"OBJECT_NAME": "IRIDIUM 33 DEB", "OBJECT_ID": "1997-051XK", "EPOCH": "2025-12-19T08:47:41.172864", "MEAN_MOTION": 14.67293181, "ECCENTRICITY": 0.0005615, "INCLINATION": 86.3772, "RA_OF_ASC_NODE": 20.938, "ARG_OF_PERICENTER": 96.5697, "MEAN_ANOMALY": 263.6157, "EPHEMERIS_TYPE": 0, "CLASSIFICATION_TYPE": "U", "NORAD_CAT_ID": 37550, "ELEMENT_SET_NO": 999, "REV_AT_EPOCH": 86430, "BSTAR": 0.00085807, "MEAN_MOTION_DOT": 4.861e-05, "MEAN_MOTION_DDOT": 0}, "tle": {"line1": "1 37550U 97051XK  25353.36644876  .00004861  00000+0  85807-3 0  9993", "line2": "2 37550  86.3772  20.9380 0005615  96.5697 263.6157 14.67293181864309"}}, "geometry": {"type": "Point", "coordinates": [48.837150152531514, 82.4246013560009]}}, {"type": "Feature", "properties": {"norad_id": 37562, "name": "IRIDIUM 33 DEB", "group": "iridium-33-debris", "lat": -12.569648710661449, "lon": 39.359891887050615, "alt_km": 710.5370844689396, "timestamp": "2025-12-20T14:38:02.354989+00:00", "meta": {"OBJECT_NAME": "IRIDIUM 33 DEB", "OBJECT_ID": "1997-051XX", "EPOCH": "2025-12-17T21:32:59.557056", "MEAN_MOTION": 14.56520214, "ECCENTRICITY": 0.00266504, "INCLINATION": 86.3744, "RA_OF_ASC_NODE": 41.3522, "ARG_OF_PERICENTER": 91.7117, "MEAN_ANOMALY": 85.7489, "EPHEMERIS_TYPE": 0, "CLASSIFICATION_TYPE": "U", "NORAD_CAT_ID": 37562, "ELEMENT_SET_NO": 999, "REV_AT_EPOCH": 86403, "BSTAR": 0.00077741138, "MEAN_MOTION_DOT": 3.496e-05, "MEAN_MOTION_DDOT": 0}, "tle": {"line1": "1 37562U 97051XX  25351.89791154  .00003496  00000+0  77741-3 0  9995", "line2": "2 37562  86.3744  41.3522 0026650  91.7117  85.7489 14.56520214864031"}}, "geometry": {"type": "Point", "coordinates": [39.359891887050615, -12.569648710661449]}}, {"type": "Feature", "properties": {"norad_id": 37565, "name": "IRIDIUM 33 DEB", "group": "iridium-33-debris", "lat": -12.517348985618678, "lon": 5.33849095580452, "alt_km": 722.0209340507226, "timestamp": "2025-12-20T14:38:02.354999+00:00", "meta": {"OBJECT_NAME": "IRIDIUM 33 DEB", "OBJECT_ID": "1997-051YA", "EPOCH": "2025-12-18T18:01:14.918304", "MEAN_MOTION": 14.5154101, "ECCENTRICITY": 0.00150095, "INCLINATION": 86.3492, "RA_OF_ASC_NODE": 6.9602, "ARG_OF_PERICENTER": 66.8058, "MEAN_ANOMALY": 293.4726, "EPHEMERIS_TYPE": 0, "CLASSIFICATION_TYPE": "U", "NORAD_CAT_ID": 37565, "ELEMENT_SET_NO": 999, "REV_AT_EPOCH": 65924, "BSTAR": 0.00039383298, "MEAN_MOTION_DOT": 1.597e-05, "MEAN_MOTION_DDOT": 0}, "tle": {"line1": "1 37565U 97051YA  25352.75086711  .00001597  00000+0  39383-3 0  9990", "line2": "2 37565  86.3492   6.9602 0015009  66.8058 293.4726 14.51541010659242"}}, "geometry": {"type": "Point", "coordinates": [5.33849095580452, -12.517348985618678]}}, {"type": "Feature", "properties": {"norad_id": 38017, "name": "IRIDIUM 33 DEB", "group": "iridium-33-debris", "lat": 7.365927713634227, "lon": 163.27995386347996, "alt_km": 706.4064257992623, "timestamp": "2025-12-20T14:38:02.355009+00:00", "meta": {"OBJECT_NAME": "IRIDIUM 33 DEB", "OBJECT_ID": "1997-051YD", "EPOCH": "2025-12-18T04:36:04.603680", "MEAN_MOTION": 14.49190685, "ECCENTRICITY": 0.00919647, "INCLINATION": 86.3412, "RA_OF_ASC_NODE": 163.8576, "ARG_OF_PERICENTER": 84.7873, "MEAN_ANOMALY": 276.3818, "EPHEMERIS_TYPE": 0, "CLASSIFICATION_TYPE": "U", "NORAD_CAT_ID": 38017, "ELEMENT_SET_NO": 999, "REV_AT_EPOCH": 61481, "BSTAR": 0.0038247823, "MEAN_MOTION_DOT": 0.00015406, "MEAN_MOTION_DDOT": 0}, "tle": {"line1": "1 38017U 97051YD  25352.19171995  .00015406  00000+0  38248-2 0  9992", "line2": "2 38017  86.3412 163.8576 0091964  84.7873 276.3818 14.49190685614819"}}, "geometry": {"type": "Point", "coordinates": [163.27995386347996, 7.365927713634227]}}, {"type": "Feature", "properties": {"norad_id": 38022, "name": "IRIDIUM 33 DEB", "group": "iridium-33-debris", "lat": -72.49938360526585, "lon": 1.050936820498714, "alt_km": 766.0002886582679, "timestamp": "2025-12-20T14:38:02.355020+00:00", "meta": {"OBJECT_NAME": "IRIDIUM 33 DEB", "OBJECT_ID": "1997-051YJ", "EPOCH": "2025-12-19T18:58:32.469312", "MEAN_MOTION": 14.41290935, "ECCENTRICITY": 0.00458382, "INCLINATION": 86.2683, "RA_OF_ASC_NODE": 13.3554, "ARG_OF_PERICENTER": 27.8099, "MEAN_ANOMALY": 332.5536, "EPHEMERIS_TYPE": 0, "CLASSIFICATION_TYPE": "U", "NORAD_CAT_ID": 38022, "ELEMENT_SET_NO": 999, "REV_AT_EPOCH": 69295, "BSTAR": 0.00071023159, "MEAN_MOTION_DOT": 2.344e-05, "MEAN_MOTION_DDOT": 0}, "tle": {"line1": "1 38022U 97051YJ  25353.79065358  .00002344  00000+0  71023-3 0  9996", "line2": "2 38022  86.2683  13.3554 0045838  27.8099 332.5536 14.41290935692950"}}, "geometry": {"type": "Point", "coordinates": [1.050936820498714, -72.49938360526585]}}, {"type": "Feature", "properties": {"norad_id": 38028, "name": "IRIDIUM 33 DEB", "group": "iridium-33-debris", "lat": -30.530199797612088, "lon": 179.01998471853827, "alt_km": 753.0799777357561, "timestamp": "2025-12-20T14:38:02.355030+00:00", "meta": {"OBJECT_NAME": "IRIDIUM 33 DEB", "OBJECT_ID": "1997-051YQ", "EPOCH": "2025-12-19T17:44:22.316352", "MEAN_MOTION": 14.46188799, "ECCENTRICITY": 0.0030512, "INCLINATION": 86.3252, "RA_OF_ASC_NODE": 357.2262, "ARG_OF_PERICENTER": 99.065, "MEAN_ANOMALY": 261.4007, "EPHEMERIS_TYPE": 0, "CLASSIFICATION_TYPE": "U", "NORAD_CAT_ID": 38028, "ELEMENT_SET_NO": 999, "REV_AT_EPOCH": 65596, "BSTAR": 0.00016660929, "MEAN_MOTION_DOT": 6.2e-06, "MEAN_MOTION_DDOT": 0}, "tle": {"line1": "1 38028U 97051YQ  25353.73914718  .00000620  00000+0  16661-3 0  9991", "line2": "2 38028  86.3252 357.2262 0030512  99.0650 261.4007 14.46188799655964"}}, "geometry": {"type": "Point", "coordinates": [179.01998471853827, -30.530199797612088]}}, {"type": "Feature", "properties": {"norad_id": 38228, "name": "IRIDIUM 33 DEB", "group": "iridium-33-debris", "lat": -30.6333169437723, "lon": 42.924018947218386, "alt_km": 852.0815595888371, "timestamp": "2025-12-20T14:38:02.355040+00:00", "meta": {"OBJECT_NAME": "IRIDIUM 33 DEB", "OBJECT_ID": "1997-051ZC", "EPOCH": "2025-12-19T22:31:11.280000", "MEAN_MOTION": 14.27277323, "ECCENTRICITY": 0.0065082, "INCLINATION": 86.2938, "RA_OF_ASC_NODE": 45.4092, "ARG_OF_PERICENTER": 166.2781, "MEAN_ANOMALY": 315.1856, "EPHEMERIS_TYPE": 0, "CLASSIFICATION_TYPE": "U", "NORAD_CAT_ID": 38228, "ELEMENT_SET_NO": 999, "REV_AT_EPOCH": 84884, "BSTAR": 0.0002129, "MEAN_MOTION_DOT": 5.52e-06, "MEAN_MOTION_DDOT": 0}, "tle": {"line1": "1 38228U 97051ZC  25353.93832500  .00000552  00000+0  21290-3 0  9991", "line2": "2 38228  86.2938  45.4092 0065082 166.2781 315.1856 14.27277323848846"}}, "geometry": {"type": "Point", "coordinates": [42.924018947218386, -30.6333169437723]}}, {"type": "Feature", "properties": {"norad_id": 38241, "name": "IRIDIUM 33 DEB", "group": "iridium-33-debris", "lat": -47.86162359152833, "lon": -16.949899534307008, "alt_km": 717.3294887292523, "timestamp": "2025-12-20T14:38:02.355050+00:00", "meta": {"OBJECT_NAME": "IRIDIUM 33 DEB", "OBJECT_ID": "1997-051ZR", "EPOCH": "2025-12-18T18:17:11.654016", "MEAN_MOTION": 14.54903336, "ECCENTRICITY": 0.00053297, "INCLINATION": 86.3221, "RA_OF_ASC_NODE": 347.9418, "ARG_OF_PERICENTER": 59.8994, "MEAN_ANOMALY": 300.274, "EPHEMERIS_TYPE": 0, "CLASSIFICATION_TYPE": "U", "NORAD_CAT_ID": 38241, "ELEMENT_SET_NO": 999, "REV_AT_EPOCH": 60288, "BSTAR": 0.0005578999, "MEAN_MOTION_DOT": 2.417e-05, "MEAN_MOTION_DDOT": 0}, "tle": {"line1": "1 38241U 97051ZR  25352.76194044  .00002417  00000+0  55790-3 0  9994", "line2": "2 38241  86.3221 347.9418 0005329  59.8994 300.2740 14.54903336602889"}}, "geometry": {"type": "Point", "coordinates": [-16.949899534307008, -47.86162359152833]}}, {"type": "Feature", "properties": {"norad_id": 38474, "name": "IRIDIUM 33 DEB", "group": "iridium-33-debris", "lat": -33.409021122719516, "lon": 4.228226305429498, "alt_km": 731.9344823924102, "timestamp": "2025-12-20T14:38:02.355060+00:00", "meta": {"OBJECT_NAME": "IRIDIUM 33 DEB", "OBJECT_ID": "1997-051AAB", "EPOCH": "2025-12-19T07:20:05.894592", "MEAN_MOTION": 14.50712379, "ECCENTRICITY": 0.0027817, "INCLINATION": 86.3489, "RA_OF_ASC_NODE": 7.2093, "ARG_OF_PERICENTER": 68.0282, "MEAN_ANOMALY": 292.3875, "EPHEMERIS_TYPE": 0, "CLASSIFICATION_TYPE": "U", "NORAD_CAT_ID": 38474, "ELEMENT_SET_NO": 999, "REV_AT_EPOCH": 65413, "BSTAR": 0.00035872, "MEAN_MOTION_DOT": 1.437e-05, "MEAN_MOTION_DDOT": 0}, "tle": {"line1": "1 38474U 97051AAB 25353.30562378  .00001437  00000+0  35872-3 0  9992", "line2": "2 38474  86.3489   7.2093 0027817  68.0282 292.3875 14.50712379654132"}}, "geometry": {"type": "Point", "coordinates": [4.228226305429498, -33.409021122719516]}}, {"type": "Feature", "properties": {"norad_id": 39777, "name": "IRIDIUM 33 DEB", "group": "iridium-33-debris", "lat": 1.5848078415130737, "lon": -8.888180037846372, "alt_km": 666.559867882489, "timestamp": "2025-12-20T14:38:02.355070+00:00", "meta": {"OBJECT_NAME": "IRIDIUM 33 DEB", "OBJECT_ID": "1997-051AAJ", "EPOCH": "2025-12-17T11:37:29.440128", "MEAN_MOTION": 14.56536598, "ECCENTRICITY": 0.00601884, "INCLINATION": 85.9622, "RA_OF_ASC_NODE": 172.7412, "ARG_OF_PERICENTER": 170.5587, "MEAN_ANOMALY": 189.6768, "EPHEMERIS_TYPE": 0, "CLASSIFICATION_TYPE": "U", "NORAD_CAT_ID": 39777, "ELEMENT_SET_NO": 999, "REV_AT_EPOCH": 60254, "BSTAR": 0.0020288102, "MEAN_MOTION_DOT": 9.279e-05, "MEAN_MOTION_DDOT": 0}, "tle": {"line1": "1 39777U 97051AAJ 25351.48436852  .00009279  00000+0  20288-2 0  9999", "line2": "2 39777  85.9622 172.7412 0060188 170.5587 189.6768 14.56536598602541"}}, "geometry": {"type": "Point", "coordinates": [-8.888180037846372, 1.5848078415130737]}}]}